0 TITAN 3C TRANSTAGE DEB
1 38691U 68081R   13289.88668380  .00000000  00000-0  10000-3 0  1727
2 38691 007.4595 321.7331 0193200 266.5537 091.1108 01.00699598 38545
0 TITAN 3C TRANSTAGE DEB
1 38691U 68081R   13293.85856110 -.00000211  00000-0  00000+0 0  1718
2 38691 007.4547 321.7037 0191440 266.1518 091.5124 01.00702942 38588
